#aV2006  7 19  0  0   .00000000      96 DD+AD WGS84 FIT  NGA
## 1384 259200.00000000   900.00000000 53935  .0000000000000
+   29     1  2  3  4  5  6  7  8  9 10 11 13 14 15 16 17 18
+         19 20 21 22 23 24 25 26 27 28 29 30  0  0  0  0  0
+          0  0  0  0  0  0  0  0  0  0  0  0  0  0  0  0  0
+          0  0  0  0  0  0  0  0  0  0  0  0  0  0  0  0  0
+          0  0  0  0  0  0  0  0  0  0  0  0  0  0  0  0  0
++         0  0  0  0  0  0  0  0  0  0  0  0  0  0  0  0  0
++         0  0  0  0  0  0  0  0  0  0  0  0  0  0  0  0  0
++         0  0  0  0  0  0  0  0  0  0  0  0  0  0  0  0  0
++         0  0  0  0  0  0  0  0  0  0  0  0  0  0  0  0  0
++         0  0  0  0  0  0  0  0  0  0  0  0  0  0  0  0  0
%c cc cc ccc ccc cccc cccc cccc cccc ccccc ccccc ccccc ccccc
%c cc cc ccc ccc cccc cccc cccc cccc ccccc ccccc ccccc ccccc
%f  0.0000000  0.000000000  0.00000000000  0.000000000000000
%f  0.0000000  0.000000000  0.00000000000  0.000000000000000
%i    0    0    0    0      0      0      0      0         0
%i    0    0    0    0      0      0      0      0         0
/*      NGA, ST. LOUIS,MO.                                  
/*   EPHEMERIS COMPUTED FROM  3 DAYS OF DATA                
/* CCCCCCCCCCCCCCCCCCCCCCCCCCCCCCCCCCCCCCCCCCCCCCCCCCCCCCCCC
/* CCCCCCCCCCCCCCCCCCCCCCCCCCCCCCCCCCCCCCCCCCCCCCCCCCCCCCCCC
*  2006  7 19 18 15   .00000000                                                 
P  1  -2843.178019 -14446.612491  22300.719571     66.267244                    
V  1  27496.488641  -3850.869031    966.432497       .019559                    
P  2  10980.911049  22577.809420   8752.510866     15.360812                    
V  2  -9510.747153  -6890.299855  28665.429253       .037022                    
P  3  -9062.592800 -13860.465126 -20975.126239    214.624198                    
V  3  25232.141151  -7598.549713  -5613.711082      -.202351                    
P  4   -456.863846  19553.995278  17769.440796    277.692008                    
V  4 -15989.071581 -16387.194221  17928.617518       .074125                    
P  5  14692.173026   5367.861268  21264.008070    236.473794                    
V  5  -7250.177922  26597.465596  -1521.665476       .312453                    
P  6  25637.181437  -6823.011933  -1718.005569    590.559527                    
V  6   3127.568636   3035.425272  30987.104951       .057304                    
P  7  10041.590954 -16240.237830 -18167.751147    540.337206                    
V  7  23590.935240  -3772.725589  15996.250835      -.013330                    
P  8  -8102.234239  13411.841791 -21525.971002    -73.028063                    
V  8 -17115.746752 -20930.220169  -7044.866422      -.012503                    
P  9  20696.757332  14718.684258   7669.152212     28.569969                    
V  9   5175.758209   9396.916956 -29557.913368       .014854                    
P 10   3535.750101  20918.024845 -15881.289854     86.822937                    
V 10  -8917.631442  18089.723037  22272.551124       .005894                    
P 11 -22825.276162 -10495.947367   8925.670752    340.211981                    
V 11  -5902.796413 -10686.581127 -27192.013989       .021575                    
P 13 -25658.774470   6023.476066  -3160.361375     78.528413                    
V 13  -4121.186435  -1220.167390  32138.341687       .030836                    
P 14  13875.993009 -14185.086738  17689.032003     -9.512169                    
V 14  22193.103127  -2466.802376 -19516.982518       .008079                    
P 15   8199.786884 -14029.084375 -21079.894030    647.701668                    
V 15  16316.228427  20941.312077  -8057.909205       .064616                    
P 16     60.949977 -23720.235644 -11747.097127     57.900615                    
V 16   7522.194183 -13302.878564  26819.954745       .028629                    
P 17 -14601.364106  14515.321362  16720.343089    100.155022                    
V 17 -21280.800724   1893.444447 -20320.653200      -.003535                    
P 18  16827.033774 -14228.501237 -14486.010764   -243.609304                    
V 18  -4839.879059  18241.803631 -23677.693224      -.012896                    
P 19 -19180.554776  -9016.914355 -15933.100923      1.688627                    
V 19  20045.819480  -4366.933344 -21453.653325       .024907                    
P 20 -15632.277978   -866.460681  21360.470670    -24.046023                    
V 20   8519.164338 -26000.847543   5181.621071       .003656                    
P 21  14777.527586  -6095.183471 -21195.706296     42.590414                    
V 21  16486.954147  21493.951156   4754.774122       .021972                    
P 22  11872.671774 -23583.167439  -2630.602167    117.789278                    
V 22   1417.991206   4420.165893 -31404.879545       .037040                    
P 23 -25271.485310  -1184.982265   8280.428083    138.247492                    
V 23  10012.175838  -4125.898307  29447.573374      -.003488                    
P 24  -8433.967095  13641.034204  21365.985351     21.918161                    
V 24 -16708.178777 -20754.906485   6997.172856       .028614                    
P 25  -6414.711262 -21162.801987  15004.691659    174.704975                    
V 25  14676.695675  11360.687879  23047.490805       .739749                    
P 26  17608.317969   9396.143850 -18214.634117   -185.392876                    
V 26 -21682.835469   3974.859211 -18778.389936      -.132275                    
P 27 -15278.327833   4926.095176 -20611.454184     58.751282                    
V 27 -18510.678275 -20375.795882   8291.726063       .016958                    
P 28 -13128.701358  21877.752496  -6403.021625     22.790322                    
V 28    220.890601  -9111.390779 -30548.521667      -.008198                    
P 29  14588.781647  10359.721457 -19499.074399    629.995847                    
V 29 -24507.089959   5470.200220 -14971.992855       .024205                    
P 30  16704.783114  -9271.065003  18116.696455      4.148982                    
V 30  -5390.621362  23137.137262  16668.042868       .012048                    
EOF
